{"type": "FeatureCollection", "features": [ {"type": "Feature", "properties": {"norad_id": 34014, "name": "COSMOS 2251 DEB", "group": "cosmos-2251-debris", "lat": 42.05344572857053, "lon": -45.688220551687856, "alt_km": 627.4600266676189, "timestamp": "2025-12-03T04:52:30.032049+00:00", "meta": {"OBJECT_NAME": "COSMOS 2251 DEB", "OBJECT_ID": "1993-036GZ", "EPOCH": "2025-12-02T08:09:37.816128", "MEAN_MOTION": 14.72915766, "ECCENTRICITY": 0.0036699, "INCLINATION": 74.0167, "RA_OF_ASC_NODE": 301.0096, "ARG_OF_PERICENTER": 83.6245, "MEAN_ANOMALY": 66.1507, "EPHEMERIS_TYPE": 0, "CLASSIFICATION_TYPE": "U", "NORAD_CAT_ID": 34014, "ELEMENT_SET_NO": 999, "REV_AT_EPOCH": 89150, "BSTAR": 0.0012616, "MEAN_MOTION_DOT": 8.152e-05, "MEAN_MOTION_DDOT": 0}, "tle": {"line1": "1 34014U 93036GZ  25336.34002102  .00008152  00000+0  12616-2 0  9997", "line2": "2 34014  74.0167 301.0096 0036699  83.6245  66.1507 14.72915766891505"}}, "geometry": {"type": "Point", "coordinates": [-45.688220551687856, 42.05344572857053]}}, {"type": "Feature", "properties": {"norad_id": 34015, "name": "COSMOS 2251 DEB", "group": "cosmos-2251-debris", "lat": -58.71291967852944, "lon": 25.765815517218137, "alt_km": 687.0393991207111, "timestamp": "2025-12-03T04:52:30.032060+00:00", "meta": {"OBJECT_NAME": "COSMOS 2251 DEB", "OBJECT_ID": "1993-036HA", "EPOCH": "2025-12-02T19:35:29.285088", "MEAN_MOTION": 14.6004905, "ECCENTRICITY": 0.0021269, "INCLINATION": 74.0239, "RA_OF_ASC_NODE": 178.3776, "ARG_OF_PERICENTER": 275.8166, "MEAN_ANOMALY": 94.6651, "EPHEMERIS_TYPE": 0, "CLASSIFICATION_TYPE": "U", "NORAD_CAT_ID": 34015, "ELEMENT_SET_NO": 999, "REV_AT_EPOCH": 88386, "BSTAR": 0.0013904, "MEAN_MOTION_DOT": 6.677e-05, "MEAN_MOTION_DDOT": 0}, "tle": {"line1": "1 34015U 93036HA  25336.81631117  .00006677  00000+0  13904-2 0  9995", "line2": "2 34015  74.0239 178.3776 0021269 275.8166  94.6651 14.60049050883867"}}, "geometry": {"type": "Point", "coordinates": [25.765815517218137, -58.71291967852944]}}, {"type": "Feature", "properties": {"norad_id": 34018, "name": "COSMOS 2251 DEB", "group": "cosmos-2251-debris", "lat": -38.88301006027829, "lon": -58.25496540079678, "alt_km": 910.5400112780062, "timestamp": "2025-12-03T04:52:30.032070+00:00", "meta": {"OBJECT_NAME": "COSMOS 2251 DEB", "OBJECT_ID": "1993-036HD", "EPOCH": "2025-12-02T19:42:41.134752", "MEAN_MOTION": 13.81046368, "ECCENTRICITY": 0.0264341, "INCLINATION": 73.8767, "RA_OF_ASC_NODE": 108.903, "ARG_OF_PERICENTER": 146.6532, "MEAN_ANOMALY": 333.569, "EPHEMERIS_TYPE": 0, "CLASSIFICATION_TYPE": "U", "NORAD_CAT_ID": 34018, "ELEMENT_SET_NO": 999, "REV_AT_EPOCH": 84520, "BSTAR": 0.00079437, "MEAN_MOTION_DOT": 1.072e-05, "MEAN_MOTION_DDOT": 0}, "tle": {"line1": "1 34018U 93036HD  25336.82130943  .00001072  00000+0  79437-3 0  9998", "line2": "2 34018  73.8767 108.9030 0264341 146.6532 333.5690 13.81046368845202"}}, "geometry": {"type": "Point", "coordinates": [-58.25496540079678, -38.88301006027829]}}, {"type": "Feature", "properties": {"norad_id": 34019, "name": "COSMOS 2251 DEB", "group": "cosmos-2251-debris", "lat": -27.574360841346298, "lon": 59.633693586642856, "alt_km": 776.6055630331975, "timestamp": "2025-12-03T04:52:30.032081+00:00", "meta": {"OBJECT_NAME": "COSMOS 2251 DEB", "OBJECT_ID": "1993-036HE", "EPOCH": "2025-12-02T14:13:38.254368", "MEAN_MOTION": 14.33850704, "ECCENTRICITY": 0.00626988, "INCLINATION": 73.9548, "RA_OF_ASC_NODE": 69.3989, "ARG_OF_PERICENTER": 252.0612, "MEAN_ANOMALY": 169.3971, "EPHEMERIS_TYPE": 0, "CLASSIFICATION_TYPE": "U", "NORAD_CAT_ID": 34019, "ELEMENT_SET_NO": 999, "REV_AT_EPOCH": 87375, "BSTAR": 0.0013227812, "MEAN_MOTION_DOT": 3.739e-05, "MEAN_MOTION_DDOT": 0}, "tle": {"line1": "1 34019U 93036HE  25336.59280387  .00003739  00000+0  13228-2 0  9998", "line2": "2 34019  73.9548  69.3989 0062698 252.0612 169.3971 14.33850704873759"}}, "geometry": {"type": "Point", "coordinates": [59.633693586642856, -27.574360841346298]}}, {"type": "Feature", "properties": {"norad_id": 34021, "name": "COSMOS 2251 DEB", "group": "cosmos-2251-debris", "lat": -56.63215170850934, "lon": -6.499931228883159, "alt_km": 723.7324824979851, "timestamp": "2025-12-03T04:52:30.032091+00:00", "meta": {"OBJECT_NAME": "COSMOS 2251 DEB", "OBJECT_ID": "1993-036HG", "EPOCH": "2025-12-02T13:07:28.217568", "MEAN_MOTION": 14.49886579, "ECCENTRICITY": 0.00206755, "INCLINATION": 74.0344, "RA_OF_ASC_NODE": 148.9655, "ARG_OF_PERICENTER": 293.9688, "MEAN_ANOMALY": 122.3899, "EPHEMERIS_TYPE": 0, "CLASSIFICATION_TYPE": "U", "NORAD_CAT_ID": 34021, "ELEMENT_SET_NO": 999, "REV_AT_EPOCH": 88482, "BSTAR": 0.00055889678, "MEAN_MOTION_DOT": 2.138e-05, "MEAN_MOTION_DDOT": 0}, "tle": {"line1": "1 34021U 93036HG  25336.54685437  .00002138  00000+0  55890-3 0  9995", "line2": "2 34021  74.0344 148.9655 0020675 293.9688 122.3899 14.49886579884822"}}, "geometry": {"type": "Point", "coordinates": [-6.499931228883159, -56.63215170850934]}}, {"type": "Feature", "properties": {"norad_id": 34022, "name": "COSMOS 2251 DEB", "group": "cosmos-2251-debris", "lat": 66.94838051710039, "lon": -29.419462059765287, "alt_km": 751.8106892093429, "timestamp": "2025-12-03T04:52:30.032101+00:00", "meta": {"OBJECT_NAME": "COSMOS 2251 DEB", "OBJECT_ID": "1993-036HH", "EPOCH": "2025-12-02T07:32:33.011808", "MEAN_MOTION": 14.38935443, "ECCENTRICITY": 0.0022315, "INCLINATION": 74.0538, "RA_OF_ASC_NODE": 290.0046, "ARG_OF_PERICENTER": 356.9515, "MEAN_ANOMALY": 153.4115, "EPHEMERIS_TYPE": 0, "CLASSIFICATION_TYPE": "U", "NORAD_CAT_ID": 34022, "ELEMENT_SET_NO": 999, "REV_AT_EPOCH": 88045, "BSTAR": 0.00034629, "MEAN_MOTION_DOT": 1.044e-05, "MEAN_MOTION_DDOT": 0}, "tle": {"line1": "1 34022U 93036HH  25336.31427097  .00001044  00000+0  34629-3 0  9999", "line2": "2 34022  74.0538 290.0046 0022315 356.9515 153.4115 14.38935443880457"}}, "geometry": {"type": "Point", "coordinates": [-29.419462059765287, 66.94838051710039]}}, {"type": "Feature", "properties": {"norad_id": 34023, "name": "COSMOS 2251 DEB", "group": "cosmos-2251-debris", "lat": -58.58877987607039, "lon": -118.58438111419835, "alt_km": 758.9405063108416, "timestamp": "2025-12-03T04:52:30.032111+00:00", "meta": {"OBJECT_NAME": "COSMOS 2251 DEB", "OBJECT_ID": "1993-036HJ", "EPOCH": "2025-12-02T21:05:34.247040", "MEAN_MOTION": 14.40522834, "ECCENTRICITY": 0.0018038, "INCLINATION": 74.0248, "RA_OF_ASC_NODE": 269.991, "ARG_OF_PERICENTER": 7.3649, "MEAN_ANOMALY": 49.4116, "EPHEMERIS_TYPE": 0, "CLASSIFICATION_TYPE": "U", "NORAD_CAT_ID": 34023, "ELEMENT_SET_NO": 999, "REV_AT_EPOCH": 88072, "BSTAR": 0.00049087, "MEAN_MOTION_DOT": 1.539e-05, "MEAN_MOTION_DDOT": 0}, "tle": {"line1": "1 34023U 93036HJ  25336.87886860  .00001539  00000+0  49087-3 0  9991", "line2": "2 34023  74.0248 269.9910 0018038   7.3649  49.4116 14.40522834880727"}}, "geometry": {"type": "Point", "coordinates": [-118.58438111419835, -58.58877987607039]}}, {"type": "Feature", "properties": {"norad_id": 34024, "name": "COSMOS 2251 DEB", "group": "cosmos-2251-debris", "lat": 52.56262554958004, "lon": 131.5337668948663, "alt_km": 770.4270759069004, "timestamp": "2025-12-03T04:52:30.032122+00:00", "meta": {"OBJECT_NAME": "COSMOS 2251 DEB", "OBJECT_ID": "1993-036HK", "EPOCH": "2025-12-02T10:39:01.167264", "MEAN_MOTION": 14.35377082, "ECCENTRICITY": 0.00205684, "INCLINATION": 74.0462, "RA_OF_ASC_NODE": 334.8654, "ARG_OF_PERICENTER": 28.3664, "MEAN_ANOMALY": 133.3463, "EPHEMERIS_TYPE": 0, "CLASSIFICATION_TYPE": "U", "NORAD_CAT_ID": 34024, "ELEMENT_SET_NO": 999, "REV_AT_EPOCH": 87876, "BSTAR": 0.00026340868, "MEAN_MOTION_DOT": 7.32e-06, "MEAN_MOTION_DDOT": 0}, "tle": {"line1": "1 34024U 93036HK  25336.44376351  .00000732  00000+0  26341-3 0  9996", "line2": "2 34024  74.0462 334.8654 0020568  28.3664 133.3463 14.35377082878760"}}, "geometry": {"type": "Point", "coordinates": [131.5337668948663, 52.56262554958004]}}, {"type": "Feature", "properties": {"norad_id": 34026, "name": "COSMOS 2251 DEB", "group": "cosmos-2251-debris", "lat": -69.02981098130664, "lon": -137.38179358763296, "alt_km": 800.6580538101243, "timestamp": "2025-12-03T04:52:30.032132+00:00", "meta": {"OBJECT_NAME": "COSMOS 2251 DEB", "OBJECT_ID": "1993-036HM", "EPOCH": "2025-12-02T12:26:11.433696", "MEAN_MOTION": 13.65275382, "ECCENTRICITY": 0.03512655, "INCLINATION": 73.7674, "RA_OF_ASC_NODE": 354.2838, "ARG_OF_PERICENTER": 225.7786, "MEAN_ANOMALY": 263.4389, "EPHEMERIS_TYPE": 0, "CLASSIFICATION_TYPE": "U", "NORAD_CAT_ID": 34026, "ELEMENT_SET_NO": 999, "REV_AT_EPOCH": 83392, "BSTAR": 0.0012610252, "MEAN_MOTION_DOT": 1.538e-05, "MEAN_MOTION_DDOT": 0}, "tle": {"line1": "1 34026U 93036HM  25336.51818789  .00001538  00000+0  12610-2 0  9990", "line2": "2 34026  73.7674 354.2838 0351265 225.7786 263.4389 13.65275382833925"}}, "geometry": {"type": "Point", "coordinates": [-137.38179358763296, -69.02981098130664]}}, {"type": "Feature", "properties": {"norad_id": 34028, "name": "COSMOS 2251 DEB", "group": "cosmos-2251-debris", "lat": -0.777802760385832, "lon": 1.6470226106365085, "alt_km": 1500.5579718994204, "timestamp": "2025-12-03T04:52:30.032144+00:00", "meta": {"OBJECT_NAME": "COSMOS 2251 DEB", "OBJECT_ID": "1993-036HP", "EPOCH": "2025-12-02T20:38:50.046144", "MEAN_MOTION": 13.20615164, "ECCENTRICITY": 0.0544142, "INCLINATION": 73.8837, "RA_OF_ASC_NODE": 2.3973, "ARG_OF_PERICENTER": 141.9294, "MEAN_ANOMALY": 32.054, "EPHEMERIS_TYPE": 0, "CLASSIFICATION_TYPE": "U", "NORAD_CAT_ID": 34028, "ELEMENT_SET_NO": 999, "REV_AT_EPOCH": 80877, "BSTAR": 0.00027798, "MEAN_MOTION_DOT": 2.28e-06, "MEAN_MOTION_DDOT": 0}, "tle": {"line1": "1 34028U 93036HP  25336.86030146  .00000228  00000+0  27798-3 0  9992", "line2": "2 34028  73.8837   2.3973 0544142 141.9294  32.0540 13.20615164808772"}}, "geometry": {"type": "Point", "coordinates": [1.6470226106365085, -0.777802760385832]}}]}